[{"OBJECT_NAME":"TEVEL2-6","OBJECT_ID":"2025-052F","EPOCH":"2026-03-09T15:35:24.554400","MEAN_MOTION":15.30760889,"ECCENTRICITY":0.0004769,"INCLINATION":97.4016,"RA_OF_ASC_NODE":325.0381,"ARG_OF_PERICENTER":95.6604,"MEAN_ANOMALY":264.5181,"EPHEMERIS_TYPE":0,"CLASSIFICATION_TYPE":"U","NORAD_CAT_ID":63215,"ELEMENT_SET_NO":999,"REV_AT_EPOCH":5486,"BSTAR":0.00070909,"MEAN_MOTION_DOT":0.00021046,"MEAN_MOTION_DDOT":0},{"OBJECT_NAME":"STARLINK-35973","OBJECT_ID":"2025-271R","EPOCH":"2026-03-09T11:21:39.053088","MEAN_MOTION":15.30203912,"ECCENTRICITY":9.323e-5,"INCLINATION":53.1577,"RA_OF_ASC_NODE":140.9367,"ARG_OF_PERICENTER":72.1712,"MEAN_ANOMALY":287.9391,"EPHEMERIS_TYPE":0,"CLASSIFICATION_TYPE":"U","NORAD_CAT_ID":66632,"ELEMENT_SET_NO":999,"REV_AT_EPOCH":1749,"BSTAR":0.00082798453,"MEAN_MOTION_DOT":0.00024246,"MEAN_MOTION_DDOT":0}]
